start=new Date('2023-04-23T00:00:00.000Z').valueOf();
sats=[{"LAUNCH_DATE":"2020-08-07","CENTER_NAME":"EARTH","OBJECT_TYPE":"PAYLOAD","ELEMENT_SET_NO":"999","SEMIMAJOR_AXIS":"6925.172","TLE_LINE1":"1 46061U 20055AL  23112.51586284  .00029371  00000-0  19794-2 0  9991","OBJECT_NAME":"STARLINK-1573","TLE_LINE2":"2 46061  53.0501 160.0117 0001012  57.5556 302.5531 15.06457598150449","GP_ID":"230560236","REF_FRAME":"TEME","REV_AT_EPOCH":"15044","EPHEMERIS_TYPE":"0","MEAN_MOTION_DOT":"0.00029371","PERIOD":"95.588","COUNTRY_CODE":"US","FILE":"3892071","MEAN_MOTION":"15.06457598","MEAN_ELEMENT_THEORY":"SGP4","MEAN_ANOMALY":"302.5531","SITE":"AFETR","BSTAR":"0.00197940000000","ARG_OF_PERICENTER":"57.5556","CLASSIFICATION_TYPE":"U","DECAY_DATE":null,"INCLINATION":"53.0501","NORAD_CAT_ID":"46061","ECCENTRICITY":"0.00010120","RCS_SIZE":"LARGE","MEAN_MOTION_DDOT":"0.0000000000000","OBJECT_ID":"2020-055AL","RA_OF_ASC_NODE":"160.0117","EPOCH":"2023-04-22T12:22:50.549376","PERIAPSIS":"546.336","APOAPSIS":"547.738","TIME_SYSTEM":"UTC"},{"ELEMENT_SET_NO":"999","OBJECT_NAME":"STARLINK-1574","TLE_LINE1":"1 46062U 20055AM  23112.54898521  .00014379  00000-0  98216-3 0  9994","SEMIMAJOR_AXIS":"6925.340","LAUNCH_DATE":"2020-08-07","CENTER_NAME":"EARTH","OBJECT_TYPE":"PAYLOAD","FILE":"3892285","PERIOD":"95.592","MEAN_MOTION_DOT":"0.00014379","COUNTRY_CODE":"US","MEAN_MOTION":"15.06402656","REF_FRAME":"TEME","GP_ID":"230591416","TLE_LINE2":"2 46062  53.0523 159.8613 0001205  93.3344 266.7783 15.06402656150410","REV_AT_EPOCH":"15041","EPHEMERIS_TYPE":"0","CLASSIFICATION_TYPE":"U","ECCENTRICITY":"0.00012050","INCLINATION":"53.0523","DECAY_DATE":null,"NORAD_CAT_ID":"46062","SITE":"AFETR","BSTAR":"0.00098216000000","MEAN_ELEMENT_THEORY":"SGP4","MEAN_ANOMALY":"266.7783","ARG_OF_PERICENTER":"93.3344","APOAPSIS":"548.040","TIME_SYSTEM":"UTC","OBJECT_ID":"2020-055AM","RCS_SIZE":"LARGE","MEAN_MOTION_DDOT":"0.0000000000000","RA_OF_ASC_NODE":"159.8613","EPOCH":"2023-04-22T13:10:32.322144","PERIAPSIS":"546.371"},{"APOAPSIS":"548.021","TIME_SYSTEM":"UTC","EPOCH":"2023-04-22T13:05:14.106624","RA_OF_ASC_NODE":"159.8763","PERIAPSIS":"546.379","RCS_SIZE":"LARGE","MEAN_MOTION_DDOT":"0.0000000000000","OBJECT_ID":"2020-055AN","DECAY_DATE":null,"INCLINATION":"53.0516","NORAD_CAT_ID":"46063","ECCENTRICITY":"0.00011860","CLASSIFICATION_TYPE":"U","ARG_OF_PERICENTER":"67.2617","MEAN_ELEMENT_THEORY":"SGP4","MEAN_ANOMALY":"292.8497","BSTAR":"0.00129550000000","SITE":"AFETR","MEAN_MOTION":"15.06404424","MEAN_MOTION_DOT":"0.00019070","PERIOD":"95.592","COUNTRY_CODE":"US","FILE":"3892071","REV_AT_EPOCH":"15044","EPHEMERIS_TYPE":"0","GP_ID":"230559253","TLE_LINE2":"2 46063  53.0516 159.8763 0001186  67.2617 292.8497 15.06404424150440","REF_FRAME":"TEME","TLE_LINE1":"1 46063U 20055AN  23112.54530216  .00019070  00000-0  12955-2 0  9997","SEMIMAJOR_AXIS":"6925.335","OBJECT_NAME":"STARLINK-1577","ELEMENT_SET_NO":"999","OBJECT_TYPE":"PAYLOAD","LAUNCH_DATE":"2020-08-07","CENTER_NAME":"EARTH"},{"APOAPSIS":"548.166","TIME_SYSTEM":"UTC","PERIAPSIS":"546.200","EPOCH":"2023-04-22T20:15:09.342432","RA_OF_ASC_NODE":"158.5361","OBJECT_ID":"2020-055AP","MEAN_MOTION_DDOT":"0.0000000000000","RCS_SIZE":"LARGE","ECCENTRICITY":"0.00014190","DECAY_DATE":null,"INCLINATION":"53.0500","NORAD_CAT_ID":"46064","CLASSIFICATION_TYPE":"U","ARG_OF_PERICENTER":"77.1057","BSTAR":"0.00118610000000","SITE":"AFETR","MEAN_ANOMALY":"283.0090","MEAN_ELEMENT_THEORY":"SGP4","MEAN_MOTION":"15.06410003","FILE":"3892285","COUNTRY_CODE":"US","PERIOD":"95.592","MEAN_MOTION_DOT":"0.00017434","REV_AT_EPOCH":"15049","EPHEMERIS_TYPE":"0","REF_FRAME":"TEME","TLE_LINE2":"2 46064  53.0500 158.5361 0001419  77.1057 283.0090 15.06410003150497","GP_ID":"230591917","OBJECT_NAME":"STARLINK-1583","SEMIMAJOR_AXIS":"6925.318","TLE_LINE1":"1 46064U 20055AP  23112.84385813  .00017434  00000-0  11861-2 0  9999","ELEMENT_SET_NO":"999","OBJECT_TYPE":"PAYLOAD","CENTER_NAME":"EARTH","LAUNCH_DATE":"2020-08-07"},{"TIME_SYSTEM":"UTC","APOAPSIS":"547.882","RA_OF_ASC_NODE":"138.8593","EPOCH":"2023-04-22T18:30:17.233920","PERIAPSIS":"546.489","OBJECT_ID":"2020-055AQ","RCS_SIZE":"LARGE","MEAN_MOTION_DDOT":"0.0000000000000","ECCENTRICITY":"0.00010060","DECAY_DATE":null,"NORAD_CAT_ID":"46065","INCLINATION":"53.0524","CLASSIFICATION_TYPE":"U","ARG_OF_PERICENTER":"89.9265","SITE":"AFETR","BSTAR":"0.00073011000000","MEAN_ELEMENT_THEORY":"SGP4","MEAN_ANOMALY":"270.1839","MEAN_MOTION":"15.06409161","FILE":"3892285","MEAN_MOTION_DOT":"0.00010613","PERIOD":"95.592","COUNTRY_CODE":"US","EPHEMERIS_TYPE":"0","REV_AT_EPOCH":"15074","REF_FRAME":"TEME","TLE_LINE2":"2 46065  53.0524 138.8593 0001006  89.9265 270.1839 15.06409161150745","GP_ID":"230590667","OBJECT_NAME":"STARLINK-1515","TLE_LINE1":"1 46065U 20055AQ  23112.77103280  .00010613  00000-0  73011-3 0  9996","SEMIMAJOR_AXIS":"6925.320","ELEMENT_SET_NO":"999","OBJECT_TYPE":"PAYLOAD","LAUNCH_DATE":"2020-08-07","CENTER_NAME":"EARTH"},{"ECCENTRICITY":"0.00012540","DECAY_DATE":null,"INCLINATION":"53.0519","NORAD_CAT_ID":"46066","CLASSIFICATION_TYPE":"U","ARG_OF_PERICENTER":"93.5813","BSTAR":"0.00030531000000","SITE":"AFETR","MEAN_ANOMALY":"266.5319","MEAN_ELEMENT_THEORY":"SGP4","TIME_SYSTEM":"UTC","APOAPSIS":"548.067","PERIAPSIS":"546.330","RA_OF_ASC_NODE":"138.8410","EPOCH":"2023-04-22T18:36:57.451680","OBJECT_ID":"2020-055AR","MEAN_MOTION_DDOT":"0.0000000000000","RCS_SIZE":"LARGE","OBJECT_NAME":"STARLINK-1525","SEMIMAJOR_AXIS":"6925.333","TLE_LINE1":"1 46066U 20055AR  23112.77566495  .00004270  00000-0  30531-3 0  9990","ELEMENT_SET_NO":"999","OBJECT_TYPE":"PAYLOAD","LAUNCH_DATE":"2020-08-07","CENTER_NAME":"EARTH","MEAN_MOTION":"15.06404954","FILE":"3892285","COUNTRY_CODE":"US","PERIOD":"95.592","MEAN_MOTION_DOT":"0.00004270","REV_AT_EPOCH":"15075","EPHEMERIS_TYPE":"0","REF_FRAME":"TEME","GP_ID":"230590917","TLE_LINE2":"2 46066  53.0519 138.8410 0001254  93.5813 266.5319 15.06404954150751"},{"ELEMENT_SET_NO":"999","SEMIMAJOR_AXIS":"6925.332","TLE_LINE1":"1 46067U 20055AS  23112.51301796  .00008188  00000-0  56786-3 0  9996","OBJECT_NAME":"STARLINK-1529","CENTER_NAME":"EARTH","LAUNCH_DATE":"2020-08-07","OBJECT_TYPE":"PAYLOAD","COUNTRY_CODE":"US","PERIOD":"95.592","MEAN_MOTION_DOT":"0.00008188","FILE":"3892151","MEAN_MOTION":"15.06405269","GP_ID":"230569158","TLE_LINE2":"2 46067  53.0525 140.0072 0001211  90.5980 269.5148 15.06405269150183","REF_FRAME":"TEME","REV_AT_EPOCH":"15018","EPHEMERIS_TYPE":"0","CLASSIFICATION_TYPE":"U","NORAD_CAT_ID":"46067","DECAY_DATE":null,"INCLINATION":"53.0525","ECCENTRICITY":"0.00012110","MEAN_ANOMALY":"269.5148","MEAN_ELEMENT_THEORY":"SGP4","BSTAR":"0.00056786000000","SITE":"AFETR","ARG_OF_PERICENTER":"90.5980","APOAPSIS":"548.036","TIME_SYSTEM":"UTC","MEAN_MOTION_DDOT":"0.0000000000000","RCS_SIZE":"LARGE","OBJECT_ID":"2020-055AS","PERIAPSIS":"546.359","RA_OF_ASC_NODE":"140.0072","EPOCH":"2023-04-22T12:18:44.751744"},{"ELEMENT_SET_NO":"999","TLE_LINE1":"1 46068U 20055AT  23112.39138610  .00003999  00000-0  28724-3 0  9992","SEMIMAJOR_AXIS":"6925.353","OBJECT_NAME":"STARLINK-1532","CENTER_NAME":"EARTH","LAUNCH_DATE":"2020-08-07","OBJECT_TYPE":"PAYLOAD","PERIOD":"95.592","MEAN_MOTION_DOT":"0.00003999","COUNTRY_CODE":"US","FILE":"3892285","MEAN_MOTION":"15.06398452","GP_ID":"230592417","TLE_LINE2":"2 46068  53.0511 140.5572 0001095  83.6255 276.4859 15.06398452150706","REF_FRAME":"TEME","REV_AT_EPOCH":"15070","EPHEMERIS_TYPE":"0","CLASSIFICATION_TYPE":"U","NORAD_CAT_ID":"46068","DECAY_DATE":null,"INCLINATION":"53.0511","ECCENTRICITY":"0.00010950","MEAN_ELEMENT_THEORY":"SGP4","MEAN_ANOMALY":"276.4859","BSTAR":"0.00028724000000","SITE":"AFETR","ARG_OF_PERICENTER":"83.6255","APOAPSIS":"547.977","TIME_SYSTEM":"UTC","RCS_SIZE":"LARGE","MEAN_MOTION_DDOT":"0.0000000000000","OBJECT_ID":"2020-055AT","EPOCH":"2023-04-22T09:23:35.759040","RA_OF_ASC_NODE":"140.5572","PERIAPSIS":"546.460"},{"ARG_OF_PERICENTER":"91.8326","MEAN_ELEMENT_THEORY":"SGP4","MEAN_ANOMALY":"268.2826","SITE":"AFETR","BSTAR":"0.00041303000000","DECAY_DATE":null,"INCLINATION":"53.0511","NORAD_CAT_ID":"46069","ECCENTRICITY":"0.00014260","CLASSIFICATION_TYPE":"U","EPOCH":"2023-04-22T19:19:25.210560","RA_OF_ASC_NODE":"138.7082","PERIAPSIS":"546.183","RCS_SIZE":"LARGE","MEAN_MOTION_DDOT":"0.0000000000000","OBJECT_ID":"2020-055AU","APOAPSIS":"548.158","TIME_SYSTEM":"UTC","OBJECT_TYPE":"PAYLOAD","CENTER_NAME":"EARTH","LAUNCH_DATE":"2020-08-07","TLE_LINE1":"1 46069U 20055AU  23112.80515290  .00005878  00000-0  41303-3 0  9998","SEMIMAJOR_AXIS":"6925.305","OBJECT_NAME":"STARLINK-1533","ELEMENT_SET_NO":"999","REV_AT_EPOCH":"15077","EPHEMERIS_TYPE":"0","GP_ID":"230591167","TLE_LINE2":"2 46069  53.0511 138.7082 0001426  91.8326 268.2826 15.06414079150774","REF_FRAME":"TEME","MEAN_MOTION":"15.06414079","MEAN_MOTION_DOT":"0.00005878","PERIOD":"95.591","COUNTRY_CODE":"US","FILE":"3892285"},{"RA_OF_ASC_NODE":"139.8336","EPOCH":"2023-04-22T13:18:28.756800","PERIAPSIS":"546.240","OBJECT_ID":"2020-055AV","RCS_SIZE":"LARGE","MEAN_MOTION_DDOT":"0.0000000000000","TIME_SYSTEM":"UTC","APOAPSIS":"548.267","ARG_OF_PERICENTER":"87.8196","BSTAR":"0.00024086000000","SITE":"AFETR","MEAN_ELEMENT_THEORY":"SGP4","MEAN_ANOMALY":"272.2960","ECCENTRICITY":"0.00014640","DECAY_DATE":null,"INCLINATION":"53.0509","NORAD_CAT_ID":"46070","CLASSIFICATION_TYPE":"U","EPHEMERIS_TYPE":"0","REV_AT_EPOCH":"15073","REF_FRAME":"TEME","TLE_LINE2":"2 46070  53.0509 139.8336 0001464  87.8196 272.2960 15.06386995150734","GP_ID":"230591417","MEAN_MOTION":"15.06386995","FILE":"3892285","MEAN_MOTION_DOT":"0.00003307","PERIOD":"95.593","COUNTRY_CODE":"US","OBJECT_TYPE":"PAYLOAD","CENTER_NAME":"EARTH","LAUNCH_DATE":"2020-08-07","OBJECT_NAME":"STARLINK-1536","TLE_LINE1":"1 46070U 20055AV  23112.55449950  .00003307  00000-0  24086-3 0  9995","SEMIMAJOR_AXIS":"6925.388","ELEMENT_SET_NO":"999"}];
